{
  "type": "FeatureCollection",
  "features": [
    {
      "type": "Feature",
      "properties": {
        "norad_id": 15362,
        "name": "NOVA 3",
        "group": "nnss",
        "lat": -1.8126099831954883,
        "lon": -99.569363807208,
        "alt_km": 1199.7218907211127,
        "timestamp": "2025-12-04T05:42:43.641568+00:00",
        "meta_object_name": "NOVA 3",
        "meta_object_id": "1984-110A",
        "meta_epoch": "2025-12-03T20:18:40.516128",
        "meta_mean_motion": 13.23042833,
        "meta_eccentricity": 0.00312185,
        "meta_inclination": 90.1226,
        "meta_ra_of_asc_node": 80.4299,
        "meta_arg_of_pericenter": 356.9247,
        "meta_mean_anomaly": 120.2283,
        "meta_ephemeris_type": 0,
        "meta_classification_type": "U",
        "meta_norad_cat_id": 15362,
        "meta_element_set_no": 999,
        "meta_rev_at_epoch": 98581,
        "meta_bstar": 9.3063096e-05,
        "meta_mean_motion_dot": 4.7e-07,
        "meta_mean_motion_ddot": 0,
        "tle_line1": "1 15362U 84110A   25337.84630227  .00000047  00000+0  93063-4 0  9998",
        "tle_line2": "2 15362  90.1226  80.4299 0031218 356.9247 120.2283 13.23042833985810"
      },
      "geometry": {
        "type": "Point",
        "coordinates": [
          -99.569363807208,
          -1.8126099831954883
        ]
      }
    },
    {
      "type": "Feature",
      "properties": {
        "norad_id": 15935,
        "name": "OSCAR 30",
        "group": "nnss",
        "lat": -45.96337417143766,
        "lon": -80.4622349000775,
        "alt_km": 1189.2038441010063,
        "timestamp": "2025-12-04T05:42:43.641579+00:00",
        "meta_object_name": "OSCAR 30",
        "meta_object_id": "1985-066A",
        "meta_epoch": "2025-12-03T22:00:57.818304",
        "meta_mean_motion": 13.36076089,
        "meta_eccentricity": 0.01693469,
        "meta_inclination": 90.1646,
        "meta_ra_of_asc_node": 99.7029,
        "meta_arg_of_pericenter": 108.5282,
        "meta_mean_anomaly": 14.1575,
        "meta_ephemeris_type": 0,
        "meta_classification_type": "U",
        "meta_norad_cat_id": 15935,
        "meta_element_set_no": 999,
        "meta_rev_at_epoch": 96335,
        "meta_bstar": 0.00023899718,
        "meta_mean_motion_dot": 1.43e-06,
        "meta_mean_motion_ddot": 0,
        "tle_line1": "1 15935U 85066A   25337.91733586  .00000143  00000+0  23900-3 0  9994",
        "tle_line2": "2 15935  90.1646  99.7029 0169346 108.5282  14.1575 13.36076089963354"
      },
      "geometry": {
        "type": "Point",
        "coordinates": [
          -80.4622349000775,
          -45.96337417143766
        ]
      }
    },
    {
      "type": "Feature",
      "properties": {
        "norad_id": 15936,
        "name": "OSCAR 24",
        "group": "nnss",
        "lat": -56.5402994853822,
        "lon": 92.42552271299692,
        "alt_km": 1257.6607751004503,
        "timestamp": "2025-12-04T05:42:43.641589+00:00",
        "meta_object_name": "OSCAR 24",
        "meta_object_id": "1985-066B",
        "meta_epoch": "2025-12-03T19:48:06.613056",
        "meta_mean_motion": 13.35933575,
        "meta_eccentricity": 0.01703838,
        "meta_inclination": 90.1787,
        "meta_ra_of_asc_node": 92.1477,
        "meta_arg_of_pericenter": 115.2258,
        "meta_mean_anomaly": 3.8692,
        "meta_ephemeris_type": 0,
        "meta_classification_type": "U",
        "meta_norad_cat_id": 15936,
        "meta_element_set_no": 999,
        "meta_rev_at_epoch": 96524,
        "meta_bstar": 0.00014632153,
        "meta_mean_motion_dot": 9.2e-07,
        "meta_mean_motion_ddot": 0,
        "tle_line1": "1 15936U 85066B   25337.82507654  .00000092  00000+0  14632-3 0  9995",
        "tle_line2": "2 15936  90.1787  92.1477 0170383 115.2258   3.8692 13.35933575965242"
      },
      "geometry": {
        "type": "Point",
        "coordinates": [
          92.42552271299692,
          -56.5402994853822
        ]
      }
    },
    {
      "type": "Feature",
      "properties": {
        "norad_id": 17070,
        "name": "POLAR BEAR",
        "group": "nnss",
        "lat": 17.791315127082378,
        "lon": -175.7638774057694,
        "alt_km": 998.5965872460883,
        "timestamp": "2025-12-04T05:42:43.641599+00:00",
        "meta_object_name": "POLAR BEAR",
        "meta_object_id": "1986-088A",
        "meta_epoch": "2025-12-03T14:10:11.075808",
        "meta_mean_motion": 13.75247908,
        "meta_eccentricity": 0.00403097,
        "meta_inclination": 89.618,
        "meta_ra_of_asc_node": 184.1395,
        "meta_arg_of_pericenter": 145.9018,
        "meta_mean_anomaly": 268.1317,
        "meta_ephemeris_type": 0,
        "meta_classification_type": "U",
        "meta_norad_cat_id": 17070,
        "meta_element_set_no": 999,
        "meta_rev_at_epoch": 95853,
        "meta_bstar": 0.00015194048,
        "meta_mean_motion_dot": 1.58e-06,
        "meta_mean_motion_ddot": 0,
        "tle_line1": "1 17070U 86088A   25337.59040597  .00000158  00000+0  15194-3 0  9990",
        "tle_line2": "2 17070  89.6180 184.1395 0040309 145.9018 268.1317 13.75247908958538"
      },
      "geometry": {
        "type": "Point",
        "coordinates": [
          -175.7638774057694,
          17.791315127082378
        ]
      }
    },
    {
      "type": "Feature",
      "properties": {
        "norad_id": 18361,
        "name": "OSCAR 27",
        "group": "nnss",
        "lat": 57.75079310866344,
        "lon": -100.45237022379763,
        "alt_km": 1130.3691635312953,
        "timestamp": "2025-12-04T05:42:43.641609+00:00",
        "meta_object_name": "OSCAR 27",
        "meta_object_id": "1987-080A",
        "meta_epoch": "2025-12-03T20:10:06.962304",
        "meta_mean_motion": 13.44903756,
        "meta_eccentricity": 0.01023919,
        "meta_inclination": 90.3742,
        "meta_ra_of_asc_node": 78.9393,
        "meta_arg_of_pericenter": 249.6442,
        "meta_mean_anomaly": 109.3683,
        "meta_ephemeris_type": 0,
        "meta_classification_type": "U",
        "meta_norad_cat_id": 18361,
        "meta_element_set_no": 999,
        "meta_rev_at_epoch": 87437,
        "meta_bstar": 0.00023784443,
        "meta_mean_motion_dot": 1.51e-06,
        "meta_mean_motion_ddot": 0,
        "tle_line1": "1 18361U 87080A   25337.84035836  .00000151  00000+0  23784-3 0  9992",
        "tle_line2": "2 18361  90.3742  78.9393 0102391 249.6442 109.3683 13.44903756874373"
      },
      "geometry": {
        "type": "Point",
        "coordinates": [
          -100.45237022379763,
          57.75079310866344
        ]
      }
    },
    {
      "type": "Feature",
      "properties": {
        "norad_id": 18362,
        "name": "OSCAR 29",
        "group": "nnss",
        "lat": 31.56247829634322,
        "lon": -100.35667390452933,
        "alt_km": 1133.2907138537184,
        "timestamp": "2025-12-04T05:42:43.641619+00:00",
        "meta_object_name": "OSCAR 29",
        "meta_object_id": "1987-080B",
        "meta_epoch": "2025-12-03T20:39:17.885088",
        "meta_mean_motion": 13.44445825,
        "meta_eccentricity": 0.01037001,
        "meta_inclination": 90.3756,
        "meta_ra_of_asc_node": 79.3983,
        "meta_arg_of_pericenter": 273.0095,
        "meta_mean_anomaly": 210.8813,
        "meta_ephemeris_type": 0,
        "meta_classification_type": "U",
        "meta_norad_cat_id": 18362,
        "meta_element_set_no": 999,
        "meta_rev_at_epoch": 87390,
        "meta_bstar": 0.00020369086,
        "meta_mean_motion_dot": 1.3e-06,
        "meta_mean_motion_ddot": 0,
        "tle_line1": "1 18362U 87080B   25337.86062367  .00000130  00000+0  20369-3 0  9997",
        "tle_line2": "2 18362  90.3756  79.3983 0103700 273.0095 210.8813 13.44445825873908"
      },
      "geometry": {
        "type": "Point",
        "coordinates": [
          -100.35667390452933,
          31.56247829634322
        ]
      }
    },
    {
      "type": "Feature",
      "properties": {
        "norad_id": 19070,
        "name": "OSCAR 23",
        "group": "nnss",
        "lat": 72.27312916092583,
        "lon": 15.120099610161112,
        "alt_km": 1240.6059729093577,
        "timestamp": "2025-12-04T05:42:43.641629+00:00",
        "meta_object_name": "OSCAR 23",
        "meta_object_id": "1988-033A",
        "meta_epoch": "2025-12-03T15:30:12.247776",
        "meta_mean_motion": 13.27784975,
        "meta_eccentricity": 0.01887734,
        "meta_inclination": 90.3223,
        "meta_ra_of_asc_node": 16.1105,
        "meta_arg_of_pericenter": 205.2478,
        "meta_mean_anomaly": 280.4281,
        "meta_ephemeris_type": 0,
        "meta_classification_type": "U",
        "meta_norad_cat_id": 19070,
        "meta_element_set_no": 999,
        "meta_rev_at_epoch": 82132,
        "meta_bstar": 0.00021239361,
        "meta_mean_motion_dot": 1.13e-06,
        "meta_mean_motion_ddot": 0,
        "tle_line1": "1 19070U 88033A   25337.64597509  .00000113  00000+0  21239-3 0  9998",
        "tle_line2": "2 19070  90.3223  16.1105 0188773 205.2478 280.4281 13.27784975821328"
      },
      "geometry": {
        "type": "Point",
        "coordinates": [
          15.120099610161112,
          72.27312916092583
        ]
      }
    }
  ]
}